[{"OBJECT_NAME":"STARLINK-32837","OBJECT_ID":"2025-018G","EPOCH":"2026-03-09T23:18:25.622496","MEAN_MOTION":15.30197311,"ECCENTRICITY":0.00017826,"INCLINATION":53.16,"RA_OF_ASC_NODE":308.1474,"ARG_OF_PERICENTER":168.9853,"MEAN_ANOMALY":191.1188,"EPHEMERIS_TYPE":0,"CLASSIFICATION_TYPE":"U","NORAD_CAT_ID":62812,"ELEMENT_SET_NO":999,"REV_AT_EPOCH":6322,"BSTAR":0.00035972158,"MEAN_MOTION_DOT":0.00010309,"MEAN_MOTION_DDOT":0},{"OBJECT_NAME":"OBJECT P","OBJECT_ID":"2018-099P","EPOCH":"2026-03-09T16:35:55.790016","MEAN_MOTION":15.30834106,"ECCENTRICITY":0.00076856,"INCLINATION":97.4366,"RA_OF_ASC_NODE":131.9195,"ARG_OF_PERICENTER":276.7627,"MEAN_ANOMALY":83.2739,"EPHEMERIS_TYPE":0,"CLASSIFICATION_TYPE":"U","NORAD_CAT_ID":43771,"ELEMENT_SET_NO":999,"REV_AT_EPOCH":39830,"BSTAR":0.00063632878,"MEAN_MOTION_DOT":0.00018926,"MEAN_MOTION_DDOT":0}]
